{
  "type": "FeatureCollection",
  "features": [
    {
      "type": "Feature",
      "properties": {
        "norad_id": 34540,
        "name": "IRIDIUM 33 DEB",
        "group": "iridium-33-debris",
        "lat": 56.01545906353758,
        "lon": -50.898378656967964,
        "alt_km": 634.8005119760173,
        "timestamp": "2025-12-21T11:31:43.244018+00:00",
        "meta_object_name": "IRIDIUM 33 DEB",
        "meta_object_id": "1997-051JH",
        "meta_epoch": "2025-12-21T03:12:48.464928",
        "meta_mean_motion": 14.7547443,
        "meta_eccentricity": 0.0017711,
        "meta_inclination": 86.311,
        "meta_ra_of_asc_node": 303.768,
        "meta_arg_of_pericenter": 130.8204,
        "meta_mean_anomaly": 246.4988,
        "meta_ephemeris_type": 0,
        "meta_classification_type": "U",
        "meta_norad_cat_id": 34540,
        "meta_element_set_no": 999,
        "meta_rev_at_epoch": 89145,
        "meta_bstar": 0.0010238,
        "meta_mean_motion_dot": 7.004e-05,
        "meta_mean_motion_ddot": 0,
        "tle_line1": "1 34540U 97051JH  25355.13389427  .00007004  00000+0  10238-2 0  9991",
        "tle_line2": "2 34540  86.3110 303.7680 0017711 130.8204 246.4988 14.75474430891456"
      },
      "geometry": {
        "type": "Point",
        "coordinates": [
          -50.898378656967964,
          56.01545906353758
        ]
      }
    },
    {
      "type": "Feature",
      "properties": {
        "norad_id": 34648,
        "name": "IRIDIUM 33 DEB",
        "group": "iridium-33-debris",
        "lat": 1.1181179522182514,
        "lon": -81.51271939306253,
        "alt_km": 853.4075617420422,
        "timestamp": "2025-12-21T11:31:43.244028+00:00",
        "meta_object_name": "IRIDIUM 33 DEB",
        "meta_object_id": "1997-051JZ",
        "meta_epoch": "2025-12-21T01:19:00.379200",
        "meta_mean_motion": 14.11717804,
        "meta_eccentricity": 0.0180072,
        "meta_inclination": 86.3908,
        "meta_ra_of_asc_node": 278.5885,
        "meta_arg_of_pericenter": 272.8374,
        "meta_mean_anomaly": 85.2213,
        "meta_ephemeris_type": 0,
        "meta_classification_type": "U",
        "meta_norad_cat_id": 34648,
        "meta_element_set_no": 999,
        "meta_rev_at_epoch": 85078,
        "meta_bstar": 0.0043851,
        "meta_mean_motion_dot": 9.319e-05,
        "meta_mean_motion_ddot": 0,
        "tle_line1": "1 34648U 97051JZ  25355.05486550  .00009319  00000+0  43851-2 0  9994",
        "tle_line2": "2 34648  86.3908 278.5885 0180072 272.8374  85.2213 14.11717804850788"
      },
      "geometry": {
        "type": "Point",
        "coordinates": [
          -81.51271939306253,
          1.1181179522182514
        ]
      }
    },
    {
      "type": "Feature",
      "properties": {
        "norad_id": 34651,
        "name": "IRIDIUM 33 DEB",
        "group": "iridium-33-debris",
        "lat": 35.73554383350437,
        "lon": -45.82219581707794,
        "alt_km": 716.0287479874405,
        "timestamp": "2025-12-21T11:31:43.244039+00:00",
        "meta_object_name": "IRIDIUM 33 DEB",
        "meta_object_id": "1997-051KC",
        "meta_epoch": "2025-12-19T16:44:48.420096",
        "meta_mean_motion": 14.25922062,
        "meta_eccentricity": 0.01422464,
        "meta_inclination": 86.2827,
        "meta_ra_of_asc_node": 137.6175,
        "meta_arg_of_pericenter": 181.9677,
        "meta_mean_anomaly": 178.0974,
        "meta_ephemeris_type": 0,
        "meta_classification_type": "U",
        "meta_norad_cat_id": 34651,
        "meta_element_set_no": 999,
        "meta_rev_at_epoch": 85995,
        "meta_bstar": 0.0022061693,
        "meta_mean_motion_dot": 5.865e-05,
        "meta_mean_motion_ddot": 0,
        "tle_line1": "1 34651U 97051KC  25353.69778264  .00005865  00000+0  22062-2 0  9995",
        "tle_line2": "2 34651  86.2827 137.6175 0142246 181.9677 178.0974 14.25922062859957"
      },
      "geometry": {
        "type": "Point",
        "coordinates": [
          -45.82219581707794,
          35.73554383350437
        ]
      }
    },
    {
      "type": "Feature",
      "properties": {
        "norad_id": 34652,
        "name": "IRIDIUM 33 DEB",
        "group": "iridium-33-debris",
        "lat": -73.34382674142489,
        "lon": 168.49307323226213,
        "alt_km": 676.1390725649389,
        "timestamp": "2025-12-21T11:31:43.244049+00:00",
        "meta_object_name": "IRIDIUM 33 DEB",
        "meta_object_id": "1997-051KD",
        "meta_epoch": "2025-12-20T16:52:48.078336",
        "meta_mean_motion": 14.62123856,
        "meta_eccentricity": 0.00255005,
        "meta_inclination": 86.3312,
        "meta_ra_of_asc_node": 336.455,
        "meta_arg_of_pericenter": 269.1159,
        "meta_mean_anomaly": 217.3003,
        "meta_ephemeris_type": 0,
        "meta_classification_type": "U",
        "meta_norad_cat_id": 34652,
        "meta_element_set_no": 999,
        "meta_rev_at_epoch": 88600,
        "meta_bstar": 0.00058363699,
        "meta_mean_motion_dot": 2.968e-05,
        "meta_mean_motion_ddot": 0,
        "tle_line1": "1 34652U 97051KD  25354.70333424  .00002968  00000+0  58364-3 0  9990",
        "tle_line2": "2 34652  86.3312 336.4550 0025500 269.1159 217.3003 14.62123856886002"
      },
      "geometry": {
        "type": "Point",
        "coordinates": [
          168.49307323226213,
          -73.34382674142489
        ]
      }
    },
    {
      "type": "Feature",
      "properties": {
        "norad_id": 34690,
        "name": "IRIDIUM 33 DEB",
        "group": "iridium-33-debris",
        "lat": -76.5249993589078,
        "lon": -131.4766949317495,
        "alt_km": 718.0085173850348,
        "timestamp": "2025-12-21T11:31:43.244059+00:00",
        "meta_object_name": "IRIDIUM 33 DEB",
        "meta_object_id": "1997-051KM",
        "meta_epoch": "2025-12-21T02:14:02.861088",
        "meta_mean_motion": 14.55122739,
        "meta_eccentricity": 0.0009876,
        "meta_inclination": 86.3773,
        "meta_ra_of_asc_node": 33.3605,
        "meta_arg_of_pericenter": 1.7251,
        "meta_mean_anomaly": 27.9675,
        "meta_ephemeris_type": 0,
        "meta_classification_type": "U",
        "meta_norad_cat_id": 34690,
        "meta_element_set_no": 999,
        "meta_rev_at_epoch": 88216,
        "meta_bstar": 0.00028933,
        "meta_mean_motion_dot": 1.27e-05,
        "meta_mean_motion_ddot": 0,
        "tle_line1": "1 34690U 97051KM  25355.09308867  .00001270  00000+0  28933-3 0  9992",
        "tle_line2": "2 34690  86.3773  33.3605 0009876   1.7251  27.9675 14.55122739882164"
      },
      "geometry": {
        "type": "Point",
        "coordinates": [
          -131.4766949317495,
          -76.5249993589078
        ]
      }
    },
    {
      "type": "Feature",
      "properties": {
        "norad_id": 34693,
        "name": "IRIDIUM 33 DEB",
        "group": "iridium-33-debris",
        "lat": 73.49816679713736,
        "lon": 106.86712280415954,
        "alt_km": 466.47579819522616,
        "timestamp": "2025-12-21T11:31:43.244070+00:00",
        "meta_object_name": "IRIDIUM 33 DEB",
        "meta_object_id": "1997-051KQ",
        "meta_epoch": "2025-12-21T03:16:31.470240",
        "meta_mean_motion": 15.29807867,
        "meta_eccentricity": 0.0011753,
        "meta_inclination": 86.3031,
        "meta_ra_of_asc_node": 299.6452,
        "meta_arg_of_pericenter": 37.5614,
        "meta_mean_anomaly": 335.7498,
        "meta_ephemeris_type": 0,
        "meta_classification_type": "U",
        "meta_norad_cat_id": 34693,
        "meta_element_set_no": 999,
        "meta_rev_at_epoch": 89043,
        "meta_bstar": 0.0032408,
        "meta_mean_motion_dot": 0.00094734,
        "meta_mean_motion_ddot": 0,
        "tle_line1": "1 34693U 97051KQ  25355.13647535  .00094734  00000+0  32408-2 0  9996",
        "tle_line2": "2 34693  86.3031 299.6452 0011753  37.5614 335.7498 15.29807867890434"
      },
      "geometry": {
        "type": "Point",
        "coordinates": [
          106.86712280415954,
          73.49816679713736
        ]
      }
    },
    {
      "type": "Feature",
      "properties": {
        "norad_id": 34696,
        "name": "IRIDIUM 33 DEB",
        "group": "iridium-33-debris",
        "lat": -4.481825280837858,
        "lon": 23.153900760012377,
        "alt_km": 720.3575584569753,
        "timestamp": "2025-12-21T11:31:43.244081+00:00",
        "meta_object_name": "IRIDIUM 33 DEB",
        "meta_object_id": "1997-051KT",
        "meta_epoch": "2025-12-20T03:03:36.896832",
        "meta_mean_motion": 14.65425134,
        "meta_eccentricity": 0.0073881,
        "meta_inclination": 86.1833,
        "meta_ra_of_asc_node": 24.0835,
        "meta_arg_of_pericenter": 142.6074,
        "meta_mean_anomaly": 281.0712,
        "meta_ephemeris_type": 0,
        "meta_classification_type": "U",
        "meta_norad_cat_id": 34696,
        "meta_element_set_no": 999,
        "meta_rev_at_epoch": 86781,
        "meta_bstar": 0.0025217059,
        "meta_mean_motion_dot": 0.00014237,
        "meta_mean_motion_ddot": 0,
        "tle_line1": "1 34696U 97051KT  25354.12751038  .00014237  00000+0  25217-2 0  9991",
        "tle_line2": "2 34696  86.1833  24.0835 0073881 142.6074 281.0712 14.65425134867818"
      },
      "geometry": {
        "type": "Point",
        "coordinates": [
          23.153900760012377,
          -4.481825280837858
        ]
      }
    }
  ]
}